CUTE-1 (CO-55)          
1 27844U 03031E   26132.49139790  .00000193  00000+0  10270-3 0  9993
2 27844  98.6747 141.4986 0008352 292.0658  67.9634 14.24312963186590
CUBESAT XI-IV (CO-57)   
1 27848U 03031J   26132.46199471  .00000167  00000+0  92608-4 0  9993
2 27848  98.6779 141.2109 0008495 313.1821  46.8647 14.23601104186293
CUBESAT XI-V            
1 28895U 05043F   26132.66158956  .00000827  00000+0  13840-3 0  9999
2 28895  98.2946 287.5478 0013166 322.3080  37.7203 14.72535163 96529
CUTE-1.7+APD II (CO-65) 
1 32785U 08021C   26132.57998905  .00002841  00000+0  18328-3 0  9991
2 32785  97.8259 113.2726 0010022 141.3017 218.8931 15.09104326979829
CANX-2                  
1 32790U 08021H   26132.39678460  .00002079  00000+0  14955-3 0  9993
2 32790  97.8627 111.4920 0011115 155.1818 204.9944 15.05357873979425
SEEDS II (CO-66)        
1 32791U 08021J   26132.40978879  .00011295  00000+0  37368-3 0  9996
2 32791  97.7525 128.6375 0005015  85.4479 274.7334 15.31505760981819
SWISSCUBE               
1 35932U 09051B   26132.24860677  .00000616  00000+0  13145-3 0  9990
2 35932  98.4058  39.5092 0006254 336.3034  23.7877 14.62409745883909
BEESAT-1                
1 35933U 09051C   26132.44485309  .00000505  00000+0  11131-3 0  9998
2 35933  98.3987  39.4187 0005087 353.8769   6.2369 14.61659829883963
ITUPSAT1                
1 35935U 09051E   26132.19897173  .00000466  00000+0  10629-3 0  9995
2 35935  98.4072  38.3987 0007512   1.1749 358.9467 14.60384459883489
TISAT 1                 
1 36799U 10035E   26132.30006252  .00011612  00000+0  39861-3 0  9995
2 36799  98.0689  75.7118 0003584  54.2258 305.9314 15.30322973862210
AEROCUBE 4.5A           
1 38767U 12048K   26132.38623218  .00113860  00000+0  66125-3 0  9994
2 38767  64.6292 155.8749 0019245 216.8968 143.0863 15.77683228366988
STRAND-1                
1 39090U 13009E   26132.40939792  .00000178  00000+0  74217-4 0  9991
2 39090  98.3916 313.5261 0008231 346.2220  13.8741 14.37141507691927
BRITE-AUSTRIA           
1 39091U 13009F   26132.47657111  .00000107  00000+0  51034-4 0  9995
2 39091  98.3988 312.7979 0009973 353.9072   6.1992 14.36527408691928
NEE-01 PEGASO           
1 39151U 13018B   26132.35625075  .00001741  00000+0  17120-3 0  9995
2 39151  98.1174 275.3376 0011192 283.4284  76.5687 14.93482578705359
POPACS 2                
1 39269U 13055E   26131.59604559  .00009204  00000+0  15800-3 0  9990
2 39269  80.9931 186.0535 0419365 311.5041  45.0875 14.90383682657766
POPACS 3                
1 39270U 13055F   26132.65096196  .00011360  00000+0  27150-3 0  9999
2 39270  81.0001 267.6896 0554922 178.0579 182.2973 14.55239967633387
ZACUBE-1 (TSHEPISOSAT)  
1 39417U 13066B   26132.14343432  .00002957  00000+0  23294-3 0  9993
2 39417  97.8118  94.2849 0041984  14.4700 345.7715 15.00904333675321
WNISAT-1                
1 39423U 13066H   26132.38821703  .00000299  00000+0  63544-4 0  9998
2 39423  97.7159 284.0947 0162737 345.1626  14.4828 14.58017421661517
TRITON-1                
1 39427U 13066M   26132.63746713  .00001693  00000+0  20802-3 0  9995
2 39427  97.8262  43.2538 0090154 351.3055   8.6592 14.81545799668820
GOMX-1                  
1 39430U 13066Q   26132.43466410  .00001126  00000+0  17588-3 0  9998
2 39430  97.6515 335.1518 0128405 191.7035 168.1181 14.69315846664667
CUBEBUG-2 (LO-74)       
1 39440U 13066AA  26132.35579221  .00001864  00000+0  17695-3 0  9993
2 39440  97.8889  81.1965 0058821 144.7702 215.7428 14.93489993671642
NEE-02 KRYSAOR          
1 39441U 13066AB  26132.26471428  .00000979  00000+0  11293-3 0  9998
2 39441  97.8881  71.7440 0066001 186.2135 173.8270 14.86481886670865
FUNCUBE-1 (AO-73)       
1 39444U 13066AE  26132.58611970  .00005290  00000+0  33394-3 0  9991
2 39444  97.8259 103.3063 0035443 327.6966  32.2091 15.09019237674292
UWE-3                   
1 39446U 13066AG  26132.31854751  .00001988  00000+0  17489-3 0  9997
2 39446  97.8679  88.1661 0050903  79.4188 281.2762 14.96717935672216
BRITE-CA1 (TORONTO)     
1 40020U 14033L   26132.29853822  .00000459  00000+0  76566-4 0  9991
2 40020  97.9687 261.8998 0079335  32.7324 327.8764 14.72626838636936
DUCHIFAT-1              
1 40021U 14033M   26132.12536242  .00050870  00000+0  67127-3 0  9992
2 40021  98.0509 186.4226 0005800 189.1310 170.9839 15.58226206650123
NANOSATC-BR1            
1 40024U 14033Q   26132.32002664  .00009463  00000+0  32574-3 0  9993
2 40024  98.0757 161.5605 0001985 330.4034  29.7092 15.30300900648493
QB50P1                  
1 40025U 14033R   26132.48780875  .00005383  00000+0  27064-3 0  9993
2 40025  98.0983 141.1463 0008426   0.5948 359.5292 15.17694861647613
QB50P2                  
1 40032U 14033Y   26132.23387167  .00003811  00000+0  20989-3 0  9994
2 40032  98.0756 126.8919 0005855 306.0216  54.0472 15.14689804647222
PERSEUS-M2              
1 40037U 14033AD  26132.60052741  .00001036  00000+0  99244-4 0  9995
2 40037  97.9936  82.4244 0013169  61.2739 298.9803 14.95394648645468
